{
    "links": {
        "self": "http://www.neowsapp.com/rest/v1/neo/3841173?api_key=iIulBulltgU6a56xZRHN4H3l9WmuAYTsLGpBGhQ2"
    },
    "id": "3841173",
    "neo_reference_id": "3841173",
    "name": "(2019 GJ19)",
    "designation": "2019 GJ19",
    "nasa_jpl_url": "http://ssd.jpl.nasa.gov/sbdb.cgi?sstr=3841173",
    "absolute_magnitude_h": 22.5,
    "estimated_diameter": {
        "kilometers": {
            "estimated_diameter_min": 0.0840533402,
            "estimated_diameter_max": 0.1879489824
        },
        "meters": {
            "estimated_diameter_min": 84.0533402073,
            "estimated_diameter_max": 187.9489824394
        },
        "miles": {
            "estimated_diameter_min": 0.0522283081,
            "estimated_diameter_max": 0.1167860472
        },
        "feet": {
            "estimated_diameter_min": 275.7655606856,
            "estimated_diameter_max": 616.6305395464
        }
    },
    "is_potentially_hazardous_asteroid": false,
    "close_approach_data": [
        {
            "close_approach_date": "2012-10-15",
            "close_approach_date_full": "2012-Oct-15 19:24",
            "epoch_date_close_approach": 1350329040000,
            "relative_velocity": {
                "kilometers_per_second": "16.8262160364",
                "kilometers_per_hour": "60574.3777309007",
                "miles_per_hour": "37638.5626517366"
            },
            "miss_distance": {
                "astronomical": "0.3611661097",
                "lunar": "140.4936166733",
                "kilometers": "54029680.727306339",
                "miles": "33572486.8270479182"
            },
            "orbiting_body": "Earth"
        },
        {
            "close_approach_date": "2019-04-18",
            "close_approach_date_full": "2019-Apr-18 05:38",
            "epoch_date_close_approach": 1555565880000,
            "relative_velocity": {
                "kilometers_per_second": "17.6442475329",
                "kilometers_per_hour": "63519.2911185923",
                "miles_per_hour": "39468.4173064386"
            },
            "miss_distance": {
                "astronomical": "0.1530644528",
                "lunar": "59.5420721392",
                "kilometers": "22898116.111595536",
                "miles": "14228229.5799729568"
            },
            "orbiting_body": "Earth"
        },
        {
            "close_approach_date": "2019-10-05",
            "close_approach_date_full": "2019-Oct-05 23:03",
            "epoch_date_close_approach": 1570316580000,
            "relative_velocity": {
                "kilometers_per_second": "19.2553703994",
                "kilometers_per_hour": "69319.3334380186",
                "miles_per_hour": "43072.3380465288"
            },
            "miss_distance": {
                "astronomical": "0.4258715589",
                "lunar": "165.6640364121",
                "kilometers": "63709478.105019543",
                "miles": "39587234.0100259734"
            },
            "orbiting_body": "Earth"
        },
        {
            "close_approach_date": "2029-04-13",
            "close_approach_date_full": "2029-Apr-13 19:10",
            "epoch_date_close_approach": 1870801800000,
            "relative_velocity": {
                "kilometers_per_second": "21.2201259507",
                "kilometers_per_hour": "76392.453422497",
                "miles_per_hour": "47467.2997391065"
            },
            "miss_distance": {
                "astronomical": "0.369828433",
                "lunar": "143.863260437",
                "kilometers": "55325545.84223771",
                "miles": "34377700.071231998"
            },
            "orbiting_body": "Earth"
        },
        {
            "close_approach_date": "2029-10-10",
            "close_approach_date_full": "2029-Oct-10 08:18",
            "epoch_date_close_approach": 1886314680000,
            "relative_velocity": {
                "kilometers_per_second": "17.2582745518",
                "kilometers_per_hour": "62129.7883865459",
                "miles_per_hour": "38605.0343449624"
            },
            "miss_distance": {
                "astronomical": "0.3127356284",
                "lunar": "121.6541594476",
                "kilometers": "46784583.881751508",
                "miles": "29070592.4028384904"
            },
            "orbiting_body": "Earth"
        }
    ],
    "orbital_data": {
        "orbit_id": "5",
        "orbit_determination_date": "2019-06-11 22:23:23",
        "first_observation_date": "2019-04-08",
        "last_observation_date": "2019-04-28",
        "data_arc_in_days": 20,
        "observations_used": 59,
        "orbit_uncertainty": "8",
        "minimum_orbit_intersection": ".152812",
        "jupiter_tisserand_invariant": "4.924",
        "epoch_osculation": "2458583.5",
        "eccentricity": ".1455170360695054",
        "semi_major_axis": "1.263608211327026",
        "inclination": "34.19918220128115",
        "ascending_node_longitude": "24.72442812635581",
        "orbital_period": "518.8204499553779",
        "perihelion_distance": "1.079731689661628",
        "perihelion_argument": "243.1899548598869",
        "aphelion_distance": "1.447484732992424",
        "perihelion_time": "2458657.695269274708",
        "mean_anomaly": "308.5172626846298",
        "mean_motion": ".6938816695274106",
        "equinox": "J2000",
        "orbit_class": {
            "orbit_class_type": "AMO",
            "orbit_class_description": "Near-Earth asteroid orbits similar to that of 1221 Amor",
            "orbit_class_range": "1.017 AU < q (perihelion) < 1.3 AU"
        }
    },
    "is_sentry_object": false
}